{
  "type": "FeatureCollection",
  "features": [
    {
      "type": "Feature",
      "properties": {
        "norad_id": 66576,
        "name": "STARLINK-35814",
        "group": "last-30-days",
        "lat": 42.16461885777327,
        "lon": -117.51850728768683,
        "alt_km": 409.66514788814675,
        "timestamp": "2025-12-09T16:56:35.359457+00:00",
        "meta_object_name": "STARLINK-35814",
        "meta_object_id": "2025-268V",
        "meta_epoch": "2025-12-09T12:00:02.000160",
        "meta_mean_motion": 15.50572727,
        "meta_eccentricity": 0.0001977,
        "meta_inclination": 43.0007,
        "meta_ra_of_asc_node": 140.0544,
        "meta_arg_of_pericenter": 260.3136,
        "meta_mean_anomaly": 128.789,
        "meta_ephemeris_type": 0,
        "meta_classification_type": "U",
        "meta_norad_cat_id": 66576,
        "meta_element_set_no": 999,
        "meta_rev_at_epoch": 414,
        "meta_bstar": -0.00059956,
        "meta_mean_motion_dot": -0.0003535,
        "meta_mean_motion_ddot": 0,
        "tle_line1": "1 66576U 25268V   25343.50002315 -.00035350  00000+0 -59956-3 0  9990",
        "tle_line2": "2 66576  43.0007 140.0544 0001977 260.3136 128.7890 15.50572727  4144"
      },
      "geometry": {
        "type": "Point",
        "coordinates": [
          -117.51850728768683,
          42.16461885777327
        ]
      }
    },
    {
      "type": "Feature",
      "properties": {
        "norad_id": 66577,
        "name": "STARLINK-35815",
        "group": "last-30-days",
        "lat": 41.827519047131446,
        "lon": -114.97819273501698,
        "alt_km": 409.63878850154106,
        "timestamp": "2025-12-09T16:56:35.359466+00:00",
        "meta_object_name": "STARLINK-35815",
        "meta_object_id": "2025-268W",
        "meta_epoch": "2025-12-09T12:00:02.000160",
        "meta_mean_motion": 15.50614361,
        "meta_eccentricity": 0.0001911,
        "meta_inclination": 43.0006,
        "meta_ra_of_asc_node": 140.049,
        "meta_arg_of_pericenter": 264.4886,
        "meta_mean_anomaly": 126.5101,
        "meta_ephemeris_type": 0,
        "meta_classification_type": "U",
        "meta_norad_cat_id": 66577,
        "meta_element_set_no": 999,
        "meta_rev_at_epoch": 414,
        "meta_bstar": -0.0016078,
        "meta_mean_motion_dot": -0.00093664,
        "meta_mean_motion_ddot": 0,
        "tle_line1": "1 66577U 25268W   25343.50002315 -.00093664  00000+0 -16078-2 0  9990",
        "tle_line2": "2 66577  43.0006 140.0490 0001911 264.4886 126.5101 15.50614361  4141"
      },
      "geometry": {
        "type": "Point",
        "coordinates": [
          -114.97819273501698,
          41.827519047131446
        ]
      }
    },
    {
      "type": "Feature",
      "properties": {
        "norad_id": 66578,
        "name": "STARLINK-35743",
        "group": "last-30-days",
        "lat": 41.43521589773976,
        "lon": -112.46835616100572,
        "alt_km": 409.696323326586,
        "timestamp": "2025-12-09T16:56:35.359476+00:00",
        "meta_object_name": "STARLINK-35743",
        "meta_object_id": "2025-268X",
        "meta_epoch": "2025-12-09T12:00:02.000160",
        "meta_mean_motion": 15.50614144,
        "meta_eccentricity": 0.0001899,
        "meta_inclination": 43.0005,
        "meta_ra_of_asc_node": 140.0442,
        "meta_arg_of_pericenter": 267.2055,
        "meta_mean_anomaly": 125.7103,
        "meta_ephemeris_type": 0,
        "meta_classification_type": "U",
        "meta_norad_cat_id": 66578,
        "meta_element_set_no": 999,
        "meta_rev_at_epoch": 414,
        "meta_bstar": -0.0016012,
        "meta_mean_motion_dot": -0.00093288,
        "meta_mean_motion_ddot": 0,
        "tle_line1": "1 66578U 25268X   25343.50002315 -.00093288  00000+0 -16012-2 0  9991",
        "tle_line2": "2 66578  43.0005 140.0442 0001899 267.2055 125.7103 15.50614144  4144"
      },
      "geometry": {
        "type": "Point",
        "coordinates": [
          -112.46835616100572,
          41.43521589773976
        ]
      }
    },
    {
      "type": "Feature",
      "properties": {
        "norad_id": 66579,
        "name": "STARLINK-35868",
        "group": "last-30-days",
        "lat": 40.98907225585791,
        "lon": -109.99299546384172,
        "alt_km": 409.8207116367812,
        "timestamp": "2025-12-09T16:56:35.359486+00:00",
        "meta_object_name": "STARLINK-35868",
        "meta_object_id": "2025-268Y",
        "meta_epoch": "2025-12-09T12:00:02.000160",
        "meta_mean_motion": 15.50623477,
        "meta_eccentricity": 0.0002057,
        "meta_inclination": 43.0003,
        "meta_ra_of_asc_node": 140.0389,
        "meta_arg_of_pericenter": 264.2569,
        "meta_mean_anomaly": 130.5724,
        "meta_ephemeris_type": 0,
        "meta_classification_type": "U",
        "meta_norad_cat_id": 66579,
        "meta_element_set_no": 999,
        "meta_rev_at_epoch": 414,
        "meta_bstar": -0.001823,
        "meta_mean_motion_dot": -0.00106025,
        "meta_mean_motion_ddot": 0,
        "tle_line1": "1 66579U 25268Y   25343.50002315 -.00106025  00000+0 -18230-2 0  9990",
        "tle_line2": "2 66579  43.0003 140.0389 0002057 264.2569 130.5724 15.50623477  4149"
      },
      "geometry": {
        "type": "Point",
        "coordinates": [
          -109.99299546384172,
          40.98907225585791
        ]
      }
    },
    {
      "type": "Feature",
      "properties": {
        "norad_id": 66580,
        "name": "STARLINK-35872",
        "group": "last-30-days",
        "lat": 40.48930581035594,
        "lon": -107.54689139416962,
        "alt_km": 409.76950047743594,
        "timestamp": "2025-12-09T16:56:35.359496+00:00",
        "meta_object_name": "STARLINK-35872",
        "meta_object_id": "2025-268Z",
        "meta_epoch": "2025-12-09T12:00:02.000160",
        "meta_mean_motion": 15.50637947,
        "meta_eccentricity": 0.0001968,
        "meta_inclination": 43.0001,
        "meta_ra_of_asc_node": 140.0341,
        "meta_arg_of_pericenter": 259.9571,
        "meta_mean_anomaly": 136.7874,
        "meta_ephemeris_type": 0,
        "meta_classification_type": "U",
        "meta_norad_cat_id": 66580,
        "meta_element_set_no": 999,
        "meta_rev_at_epoch": 414,
        "meta_bstar": -0.0022248,
        "meta_mean_motion_dot": -0.0012901,
        "meta_mean_motion_ddot": 0,
        "tle_line1": "1 66580U 25268Z   25343.50002315 -.00129010  00000+0 -22248-2 0  9995",
        "tle_line2": "2 66580  43.0001 140.0341 0001968 259.9571 136.7874 15.50637947  4142"
      },
      "geometry": {
        "type": "Point",
        "coordinates": [
          -107.54689139416962,
          40.48930581035594
        ]
      }
    },
    {
      "type": "Feature",
      "properties": {
        "norad_id": 66581,
        "name": "STARLINK-35744",
        "group": "last-30-days",
        "lat": 39.941666565082976,
        "lon": -105.14924399700452,
        "alt_km": 409.8882412621533,
        "timestamp": "2025-12-09T16:56:35.359508+00:00",
        "meta_object_name": "STARLINK-35744",
        "meta_object_id": "2025-268AA",
        "meta_epoch": "2025-12-09T12:00:02.000160",
        "meta_mean_motion": 15.50623955,
        "meta_eccentricity": 0.0001986,
        "meta_inclination": 43.0005,
        "meta_ra_of_asc_node": 140.0293,
        "meta_arg_of_pericenter": 262.5718,
        "meta_mean_anomaly": 136.0916,
        "meta_ephemeris_type": 0,
        "meta_classification_type": "U",
        "meta_norad_cat_id": 66581,
        "meta_element_set_no": 999,
        "meta_rev_at_epoch": 409,
        "meta_bstar": -0.0018606,
        "meta_mean_motion_dot": -0.00108179,
        "meta_mean_motion_ddot": 0,
        "tle_line1": "1 66581U 25268AA  25343.50002315 -.00108179  00000+0 -18606-2 0  9992",
        "tle_line2": "2 66581  43.0005 140.0293 0001986 262.5718 136.0916 15.50623955  4094"
      },
      "geometry": {
        "type": "Point",
        "coordinates": [
          -105.14924399700452,
          39.941666565082976
        ]
      }
    },
    {
      "type": "Feature",
      "properties": {
        "norad_id": 66582,
        "name": "STARLINK-35746",
        "group": "last-30-days",
        "lat": 39.34373761327398,
        "lon": -102.78666030769074,
        "alt_km": 409.9615196122877,
        "timestamp": "2025-12-09T16:56:35.359520+00:00",
        "meta_object_name": "STARLINK-35746",
        "meta_object_id": "2025-268AB",
        "meta_epoch": "2025-12-09T12:00:02.000160",
        "meta_mean_motion": 15.50617169,
        "meta_eccentricity": 0.0001943,
        "meta_inclination": 43.0006,
        "meta_ra_of_asc_node": 140.0247,
        "meta_arg_of_pericenter": 264.5314,
        "meta_mean_anomaly": 136.0508,
        "meta_ephemeris_type": 0,
        "meta_classification_type": "U",
        "meta_norad_cat_id": 66582,
        "meta_element_set_no": 999,
        "meta_rev_at_epoch": 414,
        "meta_bstar": -0.0016616,
        "meta_mean_motion_dot": -0.00096761,
        "meta_mean_motion_ddot": 0,
        "tle_line1": "1 66582U 25268AB  25343.50002315 -.00096761  00000+0 -16616-2 0  9995",
        "tle_line2": "2 66582  43.0006 140.0247 0001943 264.5314 136.0508 15.50617169  4145"
      },
      "geometry": {
        "type": "Point",
        "coordinates": [
          -102.78666030769074,
          39.34373761327398
        ]
      }
    }
  ]
}